OBJECT C                
1 57582U 23117C   25002.23043245  .00027275  00000+0  11998-2 0  9995
2 57582  97.4652  78.1069 0008784 326.8489  33.2196 15.21808249 77390
